{"type": "FeatureCollection", "features": [ {"type": "Feature", "properties": {"norad_id": 40697, "name": "SENTINEL-2A", "group": "resource", "lat": 45.00297756869857, "lon": 52.99193827249724, "alt_km": 784.530901271135, "timestamp": "2025-12-15T04:01:20.099961+00:00", "meta": {"OBJECT_NAME": "SENTINEL-2A", "OBJECT_ID": "2015-028A", "EPOCH": "2025-12-14T07:40:11.017344", "MEAN_MOTION": 14.30814845, "ECCENTRICITY": 0.00010797, "INCLINATION": 98.5688, "RA_OF_ASC_NODE": 60.829, "ARG_OF_PERICENTER": 89.1119, "MEAN_ANOMALY": 271.0188, "EPHEMERIS_TYPE": 0, "CLASSIFICATION_TYPE": "U", "NORAD_CAT_ID": 40697, "ELEMENT_SET_NO": 999, "REV_AT_EPOCH": 54729, "BSTAR": 0.00016629471, "MEAN_MOTION_DOT": 3.92e-06, "MEAN_MOTION_DDOT": 0}, "tle": {"line1": "1 40697U 15028A   25348.31957196  .00000392  00000+0  16629-3 0  9995", "line2": "2 40697  98.5688  60.8290 0001079  89.1119 271.0188 14.30814845547295"}}, "geometry": {"type": "Point", "coordinates": [52.99193827249724, 45.00297756869857]}}, {"type": "Feature", "properties": {"norad_id": 40701, "name": "GAOFEN-8", "group": "resource", "lat": -46.54453344018303, "lon": 175.62546198484534, "alt_km": 464.95360801636343, "timestamp": "2025-12-15T04:01:20.099971+00:00", "meta": {"OBJECT_NAME": "GAOFEN-8", "OBJECT_ID": "2015-030A", "EPOCH": "2025-12-14T07:56:09.652992", "MEAN_MOTION": 15.38609485, "ECCENTRICITY": 0.00116844, "INCLINATION": 97.6911, "RA_OF_ASC_NODE": 166.5477, "ARG_OF_PERICENTER": 132.2562, "MEAN_ANOMALY": 227.9676, "EPHEMERIS_TYPE": 0, "CLASSIFICATION_TYPE": "U", "NORAD_CAT_ID": 40701, "ELEMENT_SET_NO": 999, "REV_AT_EPOCH": 58295, "BSTAR": 0.00038832734, "MEAN_MOTION_DOT": 0.00014761, "MEAN_MOTION_DDOT": 0}, "tle": {"line1": "1 40701U 15030A   25348.33066728  .00014761  00000+0  38833-3 0  9994", "line2": "2 40701  97.6911 166.5477 0011684 132.2562 227.9676 15.38609485582951"}}, "geometry": {"type": "Point", "coordinates": [175.62546198484534, -46.54453344018303]}}, {"type": "Feature", "properties": {"norad_id": 40718, "name": "CARBONITE 1 (CBNT-1)", "group": "resource", "lat": 62.06378722092342, "lon": 4.767933694252193, "alt_km": 608.922184791053, "timestamp": "2025-12-15T04:01:20.099981+00:00", "meta": {"OBJECT_NAME": "CARBONITE 1 (CBNT-1)", "OBJECT_ID": "2015-032D", "EPOCH": "2025-12-14T08:03:40.000032", "MEAN_MOTION": 14.82756299, "ECCENTRICITY": 0.00145183, "INCLINATION": 97.6405, "RA_OF_ASC_NODE": 169.3094, "ARG_OF_PERICENTER": 175.7847, "MEAN_ANOMALY": 184.3492, "EPHEMERIS_TYPE": 0, "CLASSIFICATION_TYPE": "U", "NORAD_CAT_ID": 40718, "ELEMENT_SET_NO": 999, "REV_AT_EPOCH": 56194, "BSTAR": 0.00040009633, "MEAN_MOTION_DOT": 3.188e-05, "MEAN_MOTION_DDOT": 0}, "tle": {"line1": "1 40718U 15032D   25348.33587963  .00003188  00000+0  40010-3 0  9994", "line2": "2 40718  97.6405 169.3094 0014518 175.7847 184.3492 14.82756299561942"}}, "geometry": {"type": "Point", "coordinates": [4.767933694252193, 62.06378722092342]}}, {"type": "Feature", "properties": {"norad_id": 40878, "name": "YAOGAN-27", "group": "resource", "lat": 18.935063677615474, "lon": 162.18387254827425, "alt_km": 1202.7267570268477, "timestamp": "2025-12-15T04:01:20.099992+00:00", "meta": {"OBJECT_NAME": "YAOGAN-27", "OBJECT_ID": "2015-040A", "EPOCH": "2025-12-14T07:08:17.299680", "MEAN_MOTION": 13.16059396, "ECCENTRICITY": 0.00076324, "INCLINATION": 100.1016, "RA_OF_ASC_NODE": 337.8471, "ARG_OF_PERICENTER": 283.0574, "MEAN_ANOMALY": 76.9688, "EPHEMERIS_TYPE": 0, "CLASSIFICATION_TYPE": "U", "NORAD_CAT_ID": 40878, "ELEMENT_SET_NO": 999, "REV_AT_EPOCH": 49334, "BSTAR": -0.00078415621, "MEAN_MOTION_DOT": -3.4e-06, "MEAN_MOTION_DDOT": 0}, "tle": {"line1": "1 40878U 15040A   25348.29742245 -.00000340  00000+0 -78416-3 0  9991", "line2": "2 40878 100.1016 337.8471 0007632 283.0574  76.9688 13.16059396493348"}}, "geometry": {"type": "Point", "coordinates": [162.18387254827425, 18.935063677615474]}}, {"type": "Feature", "properties": {"norad_id": 40894, "name": "GAOFEN-9 01", "group": "resource", "lat": 34.5968329707183, "lon": 22.695734628588568, "alt_km": 599.8572937444014, "timestamp": "2025-12-15T04:01:20.100002+00:00", "meta": {"OBJECT_NAME": "GAOFEN-9 01", "OBJECT_ID": "2015-047A", "EPOCH": "2025-12-14T08:25:35.372640", "MEAN_MOTION": 14.8242718, "ECCENTRICITY": 0.00282794, "INCLINATION": 97.6542, "RA_OF_ASC_NODE": 27.237, "ARG_OF_PERICENTER": 29.1617, "MEAN_ANOMALY": 331.1169, "EPHEMERIS_TYPE": 0, "CLASSIFICATION_TYPE": "U", "NORAD_CAT_ID": 40894, "ELEMENT_SET_NO": 999, "REV_AT_EPOCH": 55280, "BSTAR": 0.0002041237, "MEAN_MOTION_DOT": 1.596e-05, "MEAN_MOTION_DDOT": 0}, "tle": {"line1": "1 40894U 15047A   25348.35110385  .00001596  00000+0  20412-3 0  9992", "line2": "2 40894  97.6542  27.2370 0028279  29.1617 331.1169 14.82427180552806"}}, "geometry": {"type": "Point", "coordinates": [22.695734628588568, 34.5968329707183]}}, {"type": "Feature", "properties": {"norad_id": 41026, "name": "YAOGAN-28", "group": "resource", "lat": -12.61594839262535, "lon": -54.74877581422822, "alt_km": 494.8732343555357, "timestamp": "2025-12-15T04:01:20.100012+00:00", "meta": {"OBJECT_NAME": "YAOGAN-28", "OBJECT_ID": "2015-064A", "EPOCH": "2025-12-14T08:16:34.478400", "MEAN_MOTION": 15.24390418, "ECCENTRICITY": 0.00124264, "INCLINATION": 97.28, "RA_OF_ASC_NODE": 126.0915, "ARG_OF_PERICENTER": 120.8754, "MEAN_ANOMALY": 239.3708, "EPHEMERIS_TYPE": 0, "CLASSIFICATION_TYPE": "U", "NORAD_CAT_ID": 41026, "ELEMENT_SET_NO": 999, "REV_AT_EPOCH": 56249, "BSTAR": 0.00041055258, "MEAN_MOTION_DOT": 0.00010016, "MEAN_MOTION_DDOT": 0}, "tle": {"line1": "1 41026U 15064A   25348.34484350  .00010016  00000+0  41055-3 0  9997", "line2": "2 41026  97.2800 126.0915 0012426 120.8754 239.3708 15.24390418562492"}}, "geometry": {"type": "Point", "coordinates": [-54.74877581422822, -12.61594839262535]}}, {"type": "Feature", "properties": {"norad_id": 41038, "name": "YAOGAN-29", "group": "resource", "lat": -71.36126995683772, "lon": 37.06493870827417, "alt_km": 627.4689155577016, "timestamp": "2025-12-15T04:01:20.100022+00:00", "meta": {"OBJECT_NAME": "YAOGAN-29", "OBJECT_ID": "2015-069A", "EPOCH": "2025-12-14T08:55:05.458944", "MEAN_MOTION": 14.82887575, "ECCENTRICITY": 9.32e-06, "INCLINATION": 98.0225, "RA_OF_ASC_NODE": 11.5487, "ARG_OF_PERICENTER": 239.4401, "MEAN_ANOMALY": 120.6803, "EPHEMERIS_TYPE": 0, "CLASSIFICATION_TYPE": "U", "NORAD_CAT_ID": 41038, "ELEMENT_SET_NO": 999, "REV_AT_EPOCH": 54323, "BSTAR": 0.00016764214, "MEAN_MOTION_DOT": 1.304e-05, "MEAN_MOTION_DDOT": 0}, "tle": {"line1": "1 41038U 15069A   25348.37159096  .00001304  00000+0  16764-3 0  9993", "line2": "2 41038  98.0225  11.5487 0000093 239.4401 120.6803 14.82887575543237"}}, "geometry": {"type": "Point", "coordinates": [37.06493870827417, -71.36126995683772]}}, {"type": "Feature", "properties": {"norad_id": 41167, "name": "KENT RIDGE 1", "group": "resource", "lat": -2.693553059685826, "lon": 23.269257420533865, "alt_km": 493.1134730672402, "timestamp": "2025-12-15T04:01:20.100032+00:00", "meta": {"OBJECT_NAME": "KENT RIDGE 1", "OBJECT_ID": "2015-077B", "EPOCH": "2025-12-14T05:09:57.078144", "MEAN_MOTION": 15.21651645, "ECCENTRICITY": 0.0008536, "INCLINATION": 14.9784, "RA_OF_ASC_NODE": 200.1922, "ARG_OF_PERICENTER": 151.6516, "MEAN_ANOMALY": 208.4271, "EPHEMERIS_TYPE": 0, "CLASSIFICATION_TYPE": "U", "NORAD_CAT_ID": 41167, "ELEMENT_SET_NO": 999, "REV_AT_EPOCH": 55286, "BSTAR": 0.00020248052, "MEAN_MOTION_DOT": 5.475e-05, "MEAN_MOTION_DDOT": 0}, "tle": {"line1": "1 41167U 15077B   25348.21524396  .00005475  00000+0  20248-3 0  9992", "line2": "2 41167  14.9784 200.1922 0008536 151.6516 208.4271 15.21651645552863"}}, "geometry": {"type": "Point", "coordinates": [23.269257420533865, -2.693553059685826]}}, {"type": "Feature", "properties": {"norad_id": 41194, "name": "GAOFEN-4", "group": "resource", "lat": 0.011130530412406978, "lon": -109.89650249708227, "alt_km": 35780.96953008662, "timestamp": "2025-12-15T04:01:20.100066+00:00", "meta": {"OBJECT_NAME": "GAOFEN-4", "OBJECT_ID": "2015-083A", "EPOCH": "2025-12-14T07:04:18.935040", "MEAN_MOTION": 1.00268943, "ECCENTRICITY": 0.00033745, "INCLINATION": 0.1744, "RA_OF_ASC_NODE": 81.3484, "ARG_OF_PERICENTER": 103.7373, "MEAN_ANOMALY": 109.8873, "EPHEMERIS_TYPE": 0, "CLASSIFICATION_TYPE": "U", "NORAD_CAT_ID": 41194, "ELEMENT_SET_NO": 999, "REV_AT_EPOCH": 3667, "BSTAR": 0, "MEAN_MOTION_DOT": -3.16e-06, "MEAN_MOTION_DDOT": 0}, "tle": {"line1": "1 41194U 15083A   25348.29466360 -.00000316  00000+0  00000+0 0  9993", "line2": "2 41194   0.1744  81.3484 0003374 103.7373 109.8873  1.00268943 36677"}}, "geometry": {"type": "Point", "coordinates": [-109.89650249708227, 0.011130530412406978]}}, {"type": "Feature", "properties": {"norad_id": 41240, "name": "JASON-3", "group": "resource", "lat": 39.878843481200335, "lon": 174.5291559529277, "alt_km": 1310.7281959989396, "timestamp": "2025-12-15T04:01:20.100080+00:00", "meta": {"OBJECT_NAME": "JASON-3", "OBJECT_ID": "2016-002A", "EPOCH": "2025-12-14T07:17:12.106176", "MEAN_MOTION": 12.87626611, "ECCENTRICITY": 0.00071511, "INCLINATION": 66.0391, "RA_OF_ASC_NODE": 154.5362, "ARG_OF_PERICENTER": 270.9162, "MEAN_ANOMALY": 89.1038, "EPHEMERIS_TYPE": 0, "CLASSIFICATION_TYPE": "U", "NORAD_CAT_ID": 41240, "ELEMENT_SET_NO": 999, "REV_AT_EPOCH": 46344, "BSTAR": 0.00017307431, "MEAN_MOTION_DOT": -1.8e-07, "MEAN_MOTION_DDOT": 0}, "tle": {"line1": "1 41240U 16002A   25348.30361234 -.00000018  00000+0  17307-3 0  9994", "line2": "2 41240  66.0391 154.5362 0007151 270.9162  89.1038 12.87626611463445"}}, "geometry": {"type": "Point", "coordinates": [174.5291559529277, 39.878843481200335]}}]}